CTC2_L_00582007-03
1 66580U 23574VK  26037.47798611  .00000000  00000+0  00000-0 0  9996
2 66580  60.0000 180.0000 0000000   0.0000 144.0000  3.34706426    17
CTC2_L_00582007-04
1 66581U 26869NH  26037.47798611  .00000000  00000+0  00000-0 0  9997
2 66581  60.0000 180.0000 0000000   0.0000 180.0000  3.34706426    18
CTC2_L_00582007-05
1 66582U 22638YB  26037.47798611  .00000000  00000+0  00000-0 0  9998
2 66582  60.0000 180.0000 0000000   0.0000 216.0000  3.34706426    19
CTC2_L_00582007-06
1 66583U 26265OQ  26037.47798611  .00000000  00000+0  00000-0 0  9999
2 66583  60.0000 180.0000 0000000   0.0000 252.0000  3.34706426    10
CTC2_L_00582007-07
1 66584U 23494KH  26037.47798611  .00000000  00000+0  00000-0 0  9991
2 66584  60.0000 180.0000 0000000   0.0000 288.0000  3.34706426    10
CTC2_L_00582007-08
1 66585U 22017ZI  26037.47798611  .00000000  00000+0  00000-0 0  9992
2 66585  60.0000 180.0000 0000000   0.0000 324.0000  3.34706426    12
CTC2_L_00582007-09
1 66586U 25664QH  26037.47798611  .00000000  00000+0  00000-0 0  9994
2 66586  60.0000 180.0000 0000000   0.0000   0.0000  3.34706426    14
CTC2_L_00582007-10
1 66587U 25028DQ  26037.47798611  .00000000  00000+0  00000-0 0  9999
2 66587  60.0000 180.0000 0000000   0.0000  36.0000  3.34706426    14
CTC2_L_00582008-01
1 66588U 25896FI  26037.47798611  .00000000  00000+0  00000-0 0  9993
2 66588  60.0000 210.0000 0000000   0.0000  84.0000  3.34706426    12
CTC2_L_00582008-02
1 66589U 23490WV  26037.47798611  .00000000  00000+0  00000-0 0  9992
2 66589  60.0000 210.0000 0000000   0.0000 120.0000  3.34706426    14
CTC2_L_00582008-03
1 66590U 24088OK  26037.47798611  .00000000  00000+0  00000-0 0  9998
2 66590  60.0000 210.0000 0000000   0.0000 156.0000  3.34706426    15
CTC2_L_00582008-04
1 66591U 24573RM  26037.47798611  .00000000  00000+0  00000-0 0  9998
2 66591  60.0000 210.0000 0000000   0.0000 192.0000  3.34706426    16
CTC2_L_00582008-05
1 66592U 26600HX  26037.47798611  .00000000  00000+0  00000-0 0  9992
2 66592  60.0000 210.0000 0000000   0.0000 228.0000  3.34706426    17
CTC2_L_00582008-06
1 66593U 26207IV  26037.47798611  .00000000  00000+0  00000-0 0  9996
2 66593  60.0000 210.0000 0000000   0.0000 264.0000  3.34706426    18
CTC2_L_00582008-07
1 66594U 22962Q   26037.47798611  .00000000  00000+0  00000-0 0  9991
2 66594  60.0000 210.0000 0000000   0.0000 300.0000  3.34706426    10
CTC2_L_00582008-08
1 66595U 23237JG  26037.47798611  .00000000  00000+0  00000-0 0  9998
2 66595  60.0000 210.0000 0000000   0.0000 336.0000  3.34706426    10
CTC2_L_00582008-09
1 66596U 24517ED  26037.47798611  .00000000  00000+0  00000-0 0  9991
2 66596  60.0000 210.0000 0000000   0.0000  12.0000  3.34706426    12
CTC2_L_00582008-10
1 66597U 24210HD  26037.47798611  .00000000  00000+0  00000-0 0  9992
2 66597  60.0000 210.0000 0000000   0.0000  48.0000  3.34706426    12
CTC2_L_00582009-01
1 66598U 24753AS  26037.47798611  .00000000  00000+0  00000-0 0  9995
2 66598  60.0000 240.0000 0000000   0.0000  96.0000  3.34706426    19
CTC2_L_00582009-02
1 66599U 25649HD  26037.47798611  .00000000  00000+0  00000-0 0  9991
2 66599  60.0000 240.0000 0000000   0.0000 132.0000  3.34706426    11
CTC2_L_00582009-03
1 66600U 24072SH  26037.47798611  .00000000  00000+0  00000-0 0  9993
2 66600  60.0000 240.0000 0000000   0.0000 168.0000  3.34706426    13
CTC2_L_00582009-04
1 66601U 22124ZN  26037.47798611  .00000000  00000+0  00000-0 0  9990
2 66601  60.0000 240.0000 0000000   0.0000 204.0000  3.34706426    15
CTC2_L_00582009-05
1 66602U 22169DY  26037.47798611  .00000000  00000+0  00000-0 0  9990
2 66602  60.0000 240.0000 0000000   0.0000 240.0000  3.34706426    16
CTC2_L_00582009-06
1 66603U 26751PT  26037.47798611  .00000000  00000+0  00000-0 0  9992
2 66603  60.0000 240.0000 0000000   0.0000 276.0000  3.34706426    16
CTC2_L_00582009-07
1 66604U 26774DT  26037.47798611  .00000000  00000+0  00000-0 0  9998
2 66604  60.0000 240.0000 0000000   0.0000 312.0000  3.34706426    18
CTC2_L_00582009-08
1 66605U 22163RO  26037.47798611  .00000000  00000+0  00000-0 0  9997
2 66605  60.0000 240.0000 0000000   0.0000 348.0000  3.34706426    18
CTC2_L_00582009-09
1 66606U 25205XD  26037.47798611  .00000000  00000+0  00000-0 0  9998
2 66606  60.0000 240.0000 0000000   0.0000  24.0000  3.34706426    10
CTC2_L_00582009-10
1 66607U 23695P   26037.47798611  .00000000  00000+0  00000-0 0  9990
2 66607  60.0000 240.0000 0000000   0.0000  60.0000  3.34706426    11
CTC2_L_00582010-01
1 66608U 22063ZI  26037.47798611  .00000000  00000+0  00000-0 0  9999
2 66608  60.0000 270.0000 0000000   0.0000 108.0000  3.34706426    18
CTC2_L_00582010-02
1 66609U 23036DY  26037.47798611  .00000000  00000+0  00000-0 0  9991
2 66609  60.0000 270.0000 0000000   0.0000 144.0000  3.34706426    19
CTC2_L_00582010-03
1 66610U 22844YG  26037.47798611  .00000000  00000+0  00000-0 0  9999
2 66610  60.0000 270.0000 0000000   0.0000 180.0000  3.34706426    11
CTC2_L_00582010-04
1 66611U 25674UP  26037.47798611  .00000000  00000+0  00000-0 0  9994
2 66611  60.0000 270.0000 0000000   0.0000 216.0000  3.34706426    12
CTC2_L_00582010-05
1 66612U 26342OY  26037.47798611  .00000000  00000+0  00000-0 0  9998
2 66612  60.0000 270.0000 0000000   0.0000 252.0000  3.34706426    13
CTC2_L_00582010-06
1 66613U 22409YM  26037.47798611  .00000000  00000+0  00000-0 0  9999
2 66613  60.0000 270.0000 0000000   0.0000 288.0000  3.34706426    13
CTC2_L_00582010-07
1 66614U 25967PW  26037.47798611  .00000000  00000+0  00000-0 0  9992
2 66614  60.0000 270.0000 0000000   0.0000 324.0000  3.34706426    15
CTC2_L_00582010-08
1 66615U 23512XA  26037.47798611  .00000000  00000+0  00000-0 0  9997
2 66615  60.0000 270.0000 0000000   0.0000   0.0000  3.34706426    17
CTC2_L_00582010-09
1 66616U 22916JP  26037.47798611  .00000000  00000+0  00000-0 0  9995
2 66616  60.0000 270.0000 0000000   0.0000  36.0000  3.34706426    17
CTC2_L_00582010-10
1 66617U 26016VB  26037.47798611  .00000000  00000+0  00000-0 0  9991
2 66617  60.0000 270.0000 0000000   0.0000  72.0000  3.34706426    18
CTC2_L_00582011-01
1 66618U 25570AI  26037.47798611  .00000000  00000+0  00000-0 0  9996
2 66618  60.0000 300.0000 0000000   0.0000 120.0000  3.34706426    17
CTC2_L_00582011-02
1 66619U 25614FX  26037.47798611  .00000000  00000+0  00000-0 0  9996
2 66619  60.0000 300.0000 0000000   0.0000 156.0000  3.34706426    17
CTC2_L_00582011-03
1 66620U 26993SX  26037.47798611  .00000000  00000+0  00000-0 0  9999
2 66620  60.0000 300.0000 0000000   0.0000 192.0000  3.34706426    19
CTC2_L_00582011-04
1 66621U 22761PW  26037.47798611  .00000000  00000+0  00000-0 0  9999
2 66621  60.0000 300.0000 0000000   0.0000 228.0000  3.34706426    10
CTC2_L_00582011-05
1 66622U 25530SS  26037.47798611  .00000000  00000+0  00000-0 0  9997
2 66622  60.0000 300.0000 0000000   0.0000 264.0000  3.34706426    11
CTC2_L_00582011-06
1 66623U 23075NQ  26037.47798611  .00000000  00000+0  00000-0 0  9990
2 66623  60.0000 300.0000 0000000   0.0000 300.0000  3.34706426    13
CTC2_L_00582011-07
1 66624U 25310WB  26037.47798611  .00000000  00000+0  00000-0 0  9995
2 66624  60.0000 300.0000 0000000   0.0000 336.0000  3.34706426    13
CTC2_L_00582011-08
1 66625U 22742GF  26037.47798611  .00000000  00000+0  00000-0 0  9992
2 66625  60.0000 300.0000 0000000   0.0000  12.0000  3.34706426    15
CTC2_L_00582011-09
1 66626U 23624EN  26037.47798611  .00000000  00000+0  00000-0 0  9993
2 66626  60.0000 300.0000 0000000   0.0000  48.0000  3.34706426    15
CTC2_L_00582011-10
1 66627U 25168LE  26037.47798611  .00000000  00000+0  00000-0 0  9999
2 66627  60.0000 300.0000 0000000   0.0000  84.0000  3.34706426    16
CTC2_L_00582012-01
1 66628U 24179QG  26037.47798611  .00000000  00000+0  00000-0 0  9991
2 66628  60.0000 330.0000 0000000   0.0000 132.0000  3.34706426    14
CTC2_L_00582012-02
1 66629U 22476WC  26037.47798611  .00000000  00000+0  00000-0 0  9990
2 66629  60.0000 330.0000 0000000   0.0000 168.0000  3.34706426    14
CTC2_L_00582012-03
1 66630U 22250LK  26037.47798611  .00000000  00000+0  00000-0 0  9992
2 66630  60.0000 330.0000 0000000   0.0000 204.0000  3.34706426    17
CTC2_L_00582012-04
1 66631U 22466OJ  26037.47798611  .00000000  00000+0  00000-0 0  9992
2 66631  60.0000 330.0000 0000000   0.0000 240.0000  3.34706426    18
CTC2_L_00582012-05
1 66632U 26741HY  26037.47798611  .00000000  00000+0  00000-0 0  9993
2 66632  60.0000 330.0000 0000000   0.0000 276.0000  3.34706426    18
CTC2_L_00582012-06
1 66633U 22004IN  26037.47798611  .00000000  00000+0  00000-0 0  9992
2 66633  60.0000 330.0000 0000000   0.0000 312.0000  3.34706426    10
CTC2_L_00582012-07
1 66634U 25529HE  26037.47798611  .00000000  00000+0  00000-0 0  9998
2 66634  60.0000 330.0000 0000000   0.0000 348.0000  3.34706426    10
CTC2_L_00582012-08
1 66635U 24291FF  26037.47798611  .00000000  00000+0  00000-0 0  9994
2 66635  60.0000 330.0000 0000000   0.0000  24.0000  3.34706426    12
CTC2_L_00582012-09
1 66636U 23199TI  26037.47798611  .00000000  00000+0  00000-0 0  9991
2 66636  60.0000 330.0000 0000000   0.0000  60.0000  3.34706426    13
CTC2_L_00582012-10
1 66637U 25567HY  26037.47798611  .00000000  00000+0  00000-0 0  9993
2 66637  60.0000 330.0000 0000000   0.0000  96.0000  3.34706426    13
